OBJECT_NAME,OBJECT_ID,EPOCH,MEAN_MOTION,ECCENTRICITY,INCLINATION,RA_OF_ASC_NODE,ARG_OF_PERICENTER,MEAN_ANOMALY,EPHEMERIS_TYPE,CLASSIFICATION_TYPE,NORAD_CAT_ID,ELEMENT_SET_NO,REV_AT_EPOCH,BSTAR,MEAN_MOTION_DOT,MEAN_MOTION_DDOT
EYESAT A (AO-27),1993-061C,2026-05-09T18:01:56.661600,14.30931657,.0007876,98.6893,197.1751,205.9924,154.0864,0,U,22825,999,70150,.39785E-4,.6E-6,0
ITAMSAT (IO-26),1993-061D,2026-05-09T17:48:46.548288,14.31357456,.0008703,98.6842,197.0795,189.2520,170.8504,0,U,22826,999,70181,.36864E-4,.53E-6,0
RADIO ROSTO (RS15),1994-085A,2026-05-09T19:15:18.566208,11.27583786,.0154879,64.8204,5.2972,10.8939,349.5278,0,U,23439,999,29157,-.2935E-3,-.53E-6,0
JAS-2 (FO-29),1996-046B,2026-05-09T13:38:37.802976,13.53272294,.034956,98.5282,343.7217,196.4979,162.4550,0,U,24278,999,46794,-.13601E-4,-.49E-6,0
FORTE,1997-047A,2026-05-09T15:18:06.207840,14.27928699,.0023494,69.9516,101.0923,324.5956,35.3605,0,U,24920,999,49318,.86996E-4,.158E-5,0
TECHSAT 1B (GO-32),1998-043D,2026-05-09T20:27:01.090080,14.24420772,.0001172,99.0062,121.6461,19.3513,340.7710,0,U,25397,999,44587,.39382E-4,.44E-6,0
ISS (ZARYA),1998-067A,2026-05-09T19:29:24.583776,15.49164784,.0007453,51.6310,130.0607,41.4864,318.6689,0,U,25544,999,56580,.12821E-3,.6662E-4,0
IMAGE,2000-017A,2026-05-08T13:12:27.675648,1.68666113,.74620565,94.1980,314.8469,292.3139,8.1146,0,U,26113,999,16083,-.25033507E-1,-.8E-7,0
CLUSTER II-FM7 (SAMBA),2000-041A,2026-05-10T04:58:22.033344,0.44818912,.90077886,149.7574,44.0320,260.7661,0.4598,0,U,26410,999,2013,0,.3007E-4,0
CLUSTER II-FM8 (TANGO),2000-045B,2026-05-10T03:23:54.310848,0.44409144,.90134383,150.0346,45.1293,261.7017,0.4740,0,U,26464,999,2012,0,.312E-4,0
ODIN,2001-007A,2026-05-09T15:51:32.143680,15.65630666,.0001298,97.3938,168.4457,212.8037,147.3143,0,U,26702,999,38335,.79304E-3,.8024E-3,0
OMNI-M1,2001-026A,2026-05-08T11:31:07.857120,3.92401558,.00155934,44.8458,254.4158,46.3657,313.7861,0,U,26857,999,20401,0,-.19E-6,0
PCSAT (NO-44),2001-043C,2026-05-09T19:32:08.569248,14.31941011,.0006325,67.0516,343.5231,263.7293,96.3089,0,U,26931,999,28495,.59378E-4,.76E-6,0
PROBA-1,2001-049B,2026-05-09T21:38:13.168320,15.07351271,.0053763,97.9610,137.0999,252.0728,107.4632,0,U,26958,999,33785,.12296E-3,.1847E-4,0
SAUDISAT 1C (SO-50),2002-058C,2026-05-09T17:13:32.659104,14.82964946,.0075627,64.5524,247.9994,269.4960,89.7480,0,U,27607,999,25875,.11538E-3,.829E-5,0
CORIOLIS,2003-001A,2026-05-09T17:21:20.622240,14.19934089,.0013326,98.7138,137.1942,328.0949,31.9419,0,U,27640,999,20876,.57117E-4,.78E-6,0
CUTE-1 (CO-55),2003-031E,2026-05-09T18:02:25.501056,14.24311593,.000844,98.6748,138.7930,301.1656,58.8695,0,U,27844,999,18620,.11498E-3,.222E-5,0
CUBESAT XI-IV (CO-57),2003-031J,2026-05-09T10:33:16.673184,14.23599872,.0008652,98.6780,138.2288,322.9503,37.1078,0,U,27848,999,18586,.10632E-3,.198E-5,0
MOZHAETS 4 (RS22),2003-042A,2026-05-09T20:28:00.688800,14.73401159,.001205,98.3475,313.1310,35.7507,75.7690,0,U,27939,999,20990,.17237E-3,.1064E-4,0
