EYESAT A (AO-27)        
1 22825U 93061C   26129.75135025  .00000060  00000+0  39785-4 0  9997
2 22825  98.6893 197.1751 0007876 205.9924 154.0864 14.30931657701504
ITAMSAT (IO-26)         
1 22826U 93061D   26129.74220542  .00000053  00000+0  36864-4 0  9993
2 22826  98.6842 197.0795 0008703 189.2520 170.8504 14.31357456701813
RADIO ROSTO (RS15)      
1 23439U 94085A   26129.80229822 -.00000053  00000+0 -29350-3 0  9991
2 23439  64.8204   5.2972 0154879  10.8939 349.5278 11.27583786291576
JAS-2 (FO-29)           
1 24278U 96046B   26129.56849309 -.00000049  00000+0 -13601-4 0  9991
2 24278  98.5282 343.7217 0349560 196.4979 162.4550 13.53272294467949
FORTE                   
1 24920U 97047A   26129.63757185  .00000158  00000+0  86996-4 0  9991
2 24920  69.9516 101.0923 0023494 324.5956  35.3605 14.27928699493181
TECHSAT 1B (GO-32)      
1 25397U 98043D   26129.85209595  .00000044  00000+0  39382-4 0  9999
2 25397  99.0062 121.6461 0001172  19.3513 340.7710 14.24420772445871
ISS (ZARYA)             
1 25544U 98067A   26129.81209009  .00006662  00000+0  12821-3 0  9995
2 25544  51.6310 130.0607 0007453  41.4864 318.6689 15.49164784565805
IMAGE                   
1 26113U 00017A   26128.55032032 -.00000008  00000+0 -25034-1 0  9994
2 26113  94.1980 314.8469 7462056 292.3139   8.1146  1.68666113160836
CLUSTER II-FM7 (SAMBA)  
1 26410U 00041A   26130.20719946  .00003007  00000+0  00000+0 0  9996
2 26410 149.7574  44.0320 9007788 260.7661   0.4598  0.44818912 20131
CLUSTER II-FM8 (TANGO)  
1 26464U 00045B   26130.14160082  .00003120  00000+0  00000+0 0  9999
2 26464 150.0346  45.1293 9013438 261.7017   0.4740  0.44409144 20129
ODIN                    
1 26702U 01007A   26129.66078870  .00080240  00000+0  79304-3 0  9996
2 26702  97.3938 168.4457 0001298 212.8037 147.3143 15.65630666383355
OMNI-M1                 
1 26857U 01026A   26128.47995205 -.00000019  00000+0  00000+0 0  9996
2 26857  44.8458 254.4158 0015593  46.3657 313.7861  3.92401558204019
PCSAT (NO-44)           
1 26931U 01043C   26129.81398807  .00000076  00000+0  59378-4 0  9991
2 26931  67.0516 343.5231 0006325 263.7293  96.3089 14.31941011284955
PROBA-1                 
1 26958U 01049B   26129.90154130  .00001847  00000+0  12296-3 0  9999
2 26958  97.9610 137.0999 0053763 252.0728 107.4632 15.07351271337853
SAUDISAT 1C (SO-50)     
1 27607U 02058C   26129.71773911  .00000829  00000+0  11538-3 0  9992
2 27607  64.5524 247.9994 0075627 269.4960  89.7480 14.82964946258753
CORIOLIS                
1 27640U 03001A   26129.72315535  .00000078  00000+0  57117-4 0  9993
2 27640  98.7138 137.1942 0013326 328.0949  31.9419 14.19934089208762
CUTE-1 (CO-55)          
1 27844U 03031E   26129.75168404  .00000222  00000+0  11498-3 0  9998
2 27844  98.6748 138.7930 0008440 301.1656  58.8695 14.24311593186209
CUBESAT XI-IV (CO-57)   
1 27848U 03031J   26129.43977631  .00000198  00000+0  10632-3 0  9998
2 27848  98.6780 138.2288 0008652 322.9503  37.1078 14.23599872185860
MOZHAETS 4 (RS22)       
1 27939U 03042A   26129.85278575  .00001064  00000+0  17237-3 0  9999
2 27939  98.3475 313.1310 0012050  35.7507  75.7690 14.73401159209904
